[{"OBJECT_NAME":"ICEYE-X31","OBJECT_ID":"2023-174AJ","EPOCH":"2026-03-09T23:06:20.433600","MEAN_MOTION":15.30950809,"ECCENTRICITY":0.00015021,"INCLINATION":97.3851,"RA_OF_ASC_NODE":144.9524,"ARG_OF_PERICENTER":332.6589,"MEAN_ANOMALY":27.4572,"EPHEMERIS_TYPE":0,"CLASSIFICATION_TYPE":"U","NORAD_CAT_ID":58288,"ELEMENT_SET_NO":999,"REV_AT_EPOCH":12955,"BSTAR":0.00066288467,"MEAN_MOTION_DOT":0.00019777,"MEAN_MOTION_DDOT":0},{"OBJECT_NAME":"STARLINK-31829","OBJECT_ID":"2024-091T","EPOCH":"2026-03-09T07:06:29.071584","MEAN_MOTION":15.30159829,"ECCENTRICITY":0.00014123,"INCLINATION":53.1626,"RA_OF_ASC_NODE":28.7501,"ARG_OF_PERICENTER":111.3087,"MEAN_ANOMALY":248.8065,"EPHEMERIS_TYPE":0,"CLASSIFICATION_TYPE":"U","NORAD_CAT_ID":59770,"ELEMENT_SET_NO":999,"REV_AT_EPOCH":10294,"BSTAR":-0.0001478243,"MEAN_MOTION_DOT":-4.729e-5,"MEAN_MOTION_DDOT":0}]
